STARLINK-30360          
1 57776U 23134F   26183.63993869 -.00000634  00000+0 -13512-4 0  9998
2 57776  42.9996 265.5986 0001310 273.2573  86.8129 15.27575092157086
STARLINK-30839          
1 58209U 23170D   26183.57696645 -.00000993  00000+0 -26562-4 0  9992
2 58209  43.0005 265.0971 0002419 260.3305  99.7273 15.27567369147878
STARLINK-30846          
1 58210U 23170E   26183.63736597 -.00000816  00000+0 -20147-4 0  9999
2 58210  43.0007 265.5427 0001458 284.8167  75.2523 15.27576955147870
STARLINK-30805          
1 58214U 23170J   26183.64492084 -.00000906  00000+0 -23399-4 0  9996
2 58214  43.0008 264.7430 0002078 268.8013  91.2601 15.27576833147882
STARLINK-30851          
1 58215U 23170K   26183.58339191 -.00001797  00000+0 -55807-4 0  9997
2 58215  43.0023 265.1335 0002285 256.6491 103.4106 15.27568130147870
STARLINK-30875          
1 58224U 23170U   26183.71673697 -.00001608  00000+0 -48931-4 0  9995
2 58224  42.9981 264.4021 0001208 269.7770  90.2943 15.27571676147897
