{
  "schema": "int-temerity-real-tle-snapshot/v1",
  "source": "celestrak",
  "group": "STARLINK",
  "format": "celestrak-gp-json",
  "source_url": "https://celestrak.org/NORAD/elements/gp.php?NAME=STARLINK&FORMAT=JSON",
  "downloaded_at": "2026-07-03T12:25:16.552Z",
  "generated_at": "2026-07-03T12:25:35.465Z",
  "fingerprint": "eb0f9db4",
  "shell_id": "starlink-real-43deg-490km",
  "catalog_count": 10717,
  "shell_count": 3264,
  "selected_count": 1584,
  "mean_altitude_km": 490.23,
  "mean_inclination_deg": 43.0019,
  "mean_mean_motion_rev_per_day": 15.27566421,
  "layout": {
    "planes": 72,
    "satellites_per_plane": 22,
    "selection_strategy": "largest-shell-raan-clusters-even-slot-sampling",
    "raan_cluster_threshold_deg": 2.5,
    "selected_shell_key": "43.0deg-500km"
  },
  "satellites": [
    {
      "satellite_id": "P51-S17",
      "norad_id": 58224,
      "satellite_name": "STARLINK-30875",
      "cospar_id": "2023-170U",
      "shell_id": "starlink-real-43deg-490km",
      "plane_id": 50,
      "slot_id": 16,
      "epoch": "2026-07-02T17:12:06.074208",
      "inclination": 42.9981,
      "raan": 264.4021,
      "eccentricity": 0.0001208,
      "argument_of_perigee": 269.77700000000004,
      "mean_anomaly": 90.29430000000002,
      "mean_motion": 15.27571676,
      "bstar": -0.000048931,
      "status": "active",
      "raw_omm": {
        "OBJECT_NAME": "STARLINK-30875",
        "OBJECT_ID": "2023-170U",
        "EPOCH": "2026-07-02T17:12:06.074208",
        "MEAN_MOTION": 15.27571676,
        "ECCENTRICITY": 0.0001208,
        "INCLINATION": 42.9981,
        "RA_OF_ASC_NODE": 264.4021,
        "ARG_OF_PERICENTER": 269.777,
        "MEAN_ANOMALY": 90.2943,
        "EPHEMERIS_TYPE": 0,
        "CLASSIFICATION_TYPE": "U",
        "NORAD_CAT_ID": 58224,
        "ELEMENT_SET_NO": 999,
        "REV_AT_EPOCH": 14789,
        "BSTAR": -0.000048931,
        "MEAN_MOTION_DOT": -0.00001608,
        "MEAN_MOTION_DDOT": 0
      },
      "source": "celestrak",
      "source_url": "https://celestrak.org/NORAD/elements/gp.php?NAME=STARLINK&FORMAT=JSON",
      "catalog_fingerprint": "eb0f9db4"
    },
    {
      "satellite_id": "P51-S18",
      "norad_id": 58215,
      "satellite_name": "STARLINK-30851",
      "cospar_id": "2023-170K",
      "shell_id": "starlink-real-43deg-490km",
      "plane_id": 50,
      "slot_id": 17,
      "epoch": "2026-07-02T14:00:05.061024",
      "inclination": 43.0023,
      "raan": 265.1335,
      "eccentricity": 0.0002285,
      "argument_of_perigee": 256.6491,
      "mean_anomaly": 103.41059999999999,
      "mean_motion": 15.2756813,
      "bstar": -0.000055807,
      "status": "active",
      "raw_omm": {
        "OBJECT_NAME": "STARLINK-30851",
        "OBJECT_ID": "2023-170K",
        "EPOCH": "2026-07-02T14:00:05.061024",
        "MEAN_MOTION": 15.2756813,
        "ECCENTRICITY": 0.0002285,
        "INCLINATION": 43.0023,
        "RA_OF_ASC_NODE": 265.1335,
        "ARG_OF_PERICENTER": 256.6491,
        "MEAN_ANOMALY": 103.4106,
        "EPHEMERIS_TYPE": 0,
        "CLASSIFICATION_TYPE": "U",
        "NORAD_CAT_ID": 58215,
        "ELEMENT_SET_NO": 999,
        "REV_AT_EPOCH": 14787,
        "BSTAR": -0.000055807,
        "MEAN_MOTION_DOT": -0.00001797,
        "MEAN_MOTION_DDOT": 0
      },
      "source": "celestrak",
      "source_url": "https://celestrak.org/NORAD/elements/gp.php?NAME=STARLINK&FORMAT=JSON",
      "catalog_fingerprint": "eb0f9db4"
    },
    {
      "satellite_id": "P51-S19",
      "norad_id": 58214,
      "satellite_name": "STARLINK-30805",
      "cospar_id": "2023-170J",
      "shell_id": "starlink-real-43deg-490km",
      "plane_id": 50,
      "slot_id": 18,
      "epoch": "2026-07-02T15:28:41.160576",
      "inclination": 43.0008,
      "raan": 264.74299999999994,
      "eccentricity": 0.0002078,
      "argument_of_perigee": 268.8013000000001,
      "mean_anomaly": 91.26009999999997,
      "mean_motion": 15.27576833,
      "bstar": -0.000023399,
      "status": "active",
      "raw_omm": {
        "OBJECT_NAME": "STARLINK-30805",
        "OBJECT_ID": "2023-170J",
        "EPOCH": "2026-07-02T15:28:41.160576",
        "MEAN_MOTION": 15.27576833,
        "ECCENTRICITY": 0.0002078,
        "INCLINATION": 43.0008,
        "RA_OF_ASC_NODE": 264.743,
        "ARG_OF_PERICENTER": 268.8013,
        "MEAN_ANOMALY": 91.2601,
        "EPHEMERIS_TYPE": 0,
        "CLASSIFICATION_TYPE": "U",
        "NORAD_CAT_ID": 58214,
        "ELEMENT_SET_NO": 999,
        "REV_AT_EPOCH": 14788,
        "BSTAR": -0.000023399,
        "MEAN_MOTION_DOT": -0.00000906,
        "MEAN_MOTION_DDOT": 0
      },
      "source": "celestrak",
      "source_url": "https://celestrak.org/NORAD/elements/gp.php?NAME=STARLINK&FORMAT=JSON",
      "catalog_fingerprint": "eb0f9db4"
    },
    {
      "satellite_id": "P51-S20",
      "norad_id": 58209,
      "satellite_name": "STARLINK-30839",
      "cospar_id": "2023-170D",
      "shell_id": "starlink-real-43deg-490km",
      "plane_id": 50,
      "slot_id": 19,
      "epoch": "2026-07-02T13:50:49.901280",
      "inclination": 43.0005,
      "raan": 265.09709999999995,
      "eccentricity": 0.0002419,
      "argument_of_perigee": 260.33050000000003,
      "mean_anomaly": 99.72730000000001,
      "mean_motion": 15.27567369,
      "bstar": -0.000026562,
      "status": "active",
      "raw_omm": {
        "OBJECT_NAME": "STARLINK-30839",
        "OBJECT_ID": "2023-170D",
        "EPOCH": "2026-07-02T13:50:49.901280",
        "MEAN_MOTION": 15.27567369,
        "ECCENTRICITY": 0.0002419,
        "INCLINATION": 43.0005,
        "RA_OF_ASC_NODE": 265.0971,
        "ARG_OF_PERICENTER": 260.3305,
        "MEAN_ANOMALY": 99.7273,
        "EPHEMERIS_TYPE": 0,
        "CLASSIFICATION_TYPE": "U",
        "NORAD_CAT_ID": 58209,
        "ELEMENT_SET_NO": 999,
        "REV_AT_EPOCH": 14787,
        "BSTAR": -0.000026562,
        "MEAN_MOTION_DOT": -0.00000993,
        "MEAN_MOTION_DDOT": 0
      },
      "source": "celestrak",
      "source_url": "https://celestrak.org/NORAD/elements/gp.php?NAME=STARLINK&FORMAT=JSON",
      "catalog_fingerprint": "eb0f9db4"
    },
    {
      "satellite_id": "P51-S21",
      "norad_id": 57776,
      "satellite_name": "STARLINK-30360",
      "cospar_id": "2023-134F",
      "shell_id": "starlink-real-43deg-490km",
      "plane_id": 50,
      "slot_id": 20,
      "epoch": "2026-07-02T15:21:30.702816",
      "inclination": 42.9996,
      "raan": 265.59860000000003,
      "eccentricity": 0.000131,
      "argument_of_perigee": 273.2573,
      "mean_anomaly": 86.81290000000001,
      "mean_motion": 15.27575092,
      "bstar": -0.000013512,
      "status": "active",
      "raw_omm": {
        "OBJECT_NAME": "STARLINK-30360",
        "OBJECT_ID": "2023-134F",
        "EPOCH": "2026-07-02T15:21:30.702816",
        "MEAN_MOTION": 15.27575092,
        "ECCENTRICITY": 0.000131,
        "INCLINATION": 42.9996,
        "RA_OF_ASC_NODE": 265.5986,
        "ARG_OF_PERICENTER": 273.2573,
        "MEAN_ANOMALY": 86.8129,
        "EPHEMERIS_TYPE": 0,
        "CLASSIFICATION_TYPE": "U",
        "NORAD_CAT_ID": 57776,
        "ELEMENT_SET_NO": 999,
        "REV_AT_EPOCH": 15708,
        "BSTAR": -0.000013512,
        "MEAN_MOTION_DOT": -0.00000634,
        "MEAN_MOTION_DDOT": 0
      },
      "source": "celestrak",
      "source_url": "https://celestrak.org/NORAD/elements/gp.php?NAME=STARLINK&FORMAT=JSON",
      "catalog_fingerprint": "eb0f9db4"
    },
    {
      "satellite_id": "P51-S22",
      "norad_id": 58210,
      "satellite_name": "STARLINK-30846",
      "cospar_id": "2023-170E",
      "shell_id": "starlink-real-43deg-490km",
      "plane_id": 50,
      "slot_id": 21,
      "epoch": "2026-07-02T15:17:48.419808",
      "inclination": 43.0007,
      "raan": 265.54269999999997,
      "eccentricity": 0.0001458,
      "argument_of_perigee": 284.8167000000001,
      "mean_anomaly": 75.25229999999999,
      "mean_motion": 15.27576955,
      "bstar": -0.000020147,
      "status": "active",
      "raw_omm": {
        "OBJECT_NAME": "STARLINK-30846",
        "OBJECT_ID": "2023-170E",
        "EPOCH": "2026-07-02T15:17:48.419808",
        "MEAN_MOTION": 15.27576955,
        "ECCENTRICITY": 0.0001458,
        "INCLINATION": 43.0007,
        "RA_OF_ASC_NODE": 265.5427,
        "ARG_OF_PERICENTER": 284.8167,
        "MEAN_ANOMALY": 75.2523,
        "EPHEMERIS_TYPE": 0,
        "CLASSIFICATION_TYPE": "U",
        "NORAD_CAT_ID": 58210,
        "ELEMENT_SET_NO": 999,
        "REV_AT_EPOCH": 14787,
        "BSTAR": -0.000020147,
        "MEAN_MOTION_DOT": -0.00000816,
        "MEAN_MOTION_DDOT": 0
      },
      "source": "celestrak",
      "source_url": "https://celestrak.org/NORAD/elements/gp.php?NAME=STARLINK&FORMAT=JSON",
      "catalog_fingerprint": "eb0f9db4"
    }
  ]
}